SPOT 6                  
1 38755U 12047A   26198.31423691  .00000107  00000+0  32935-4 0  9990
2 38755  98.2108 265.2682 0001105  87.9863 272.1463 14.58539392737446
SPOT 7                  
1 40053U 14034A   26198.31648956  .00000025  00000+0  14341-4 0  9995
2 40053  98.0614 260.0297 0001593  94.5499 265.5884 14.60981417641534
