{"fetched_at":"2026-07-17T17:38:38.225Z","source":"https://celestrak.org/NORAD/elements/gp.php?NAME=SPOT&FORMAT=JSON","constellation":"spot","records":[{"OBJECT_NAME":"SPOT 6","OBJECT_ID":"2012-047A","EPOCH":"2026-07-17T07:32:30.069024","CLASSIFICATION_TYPE":"U","MEAN_MOTION":14.58539392,"ECCENTRICITY":0.00011057,"INCLINATION":98.2108,"RA_OF_ASC_NODE":265.2682,"ARG_OF_PERICENTER":87.9863,"MEAN_ANOMALY":272.1463,"EPHEMERIS_TYPE":0,"NORAD_CAT_ID":38755,"ELEMENT_SET_NO":999,"REV_AT_EPOCH":73744,"BSTAR":0.000032934602,"MEAN_MOTION_DOT":0.00000107,"MEAN_MOTION_DDOT":0},{"OBJECT_NAME":"SPOT 7","OBJECT_ID":"2014-034A","EPOCH":"2026-07-17T07:35:44.697984","CLASSIFICATION_TYPE":"U","MEAN_MOTION":14.60981417,"ECCENTRICITY":0.00015937,"INCLINATION":98.0614,"RA_OF_ASC_NODE":260.0297,"ARG_OF_PERICENTER":94.5499,"MEAN_ANOMALY":265.5884,"EPHEMERIS_TYPE":0,"NORAD_CAT_ID":40053,"ELEMENT_SET_NO":999,"REV_AT_EPOCH":64153,"BSTAR":0.000014340588,"MEAN_MOTION_DOT":2.5e-7,"MEAN_MOTION_DDOT":0}]}
